<?xml version="1.0" encoding="UTF-8"?>
<ndm xmlns:xsi="http://www.w3.org/2001/XMLSchema-instance" xsi:noNamespaceSchemaLocation="https://sanaregistry.org/r/ndmxml_unqualified/ndmxml-2.0.0-master-2.0.xsd">
<omm id="CCSDS_OMM_VERS" version="2.0">
<header><CREATION_DATE/><ORIGINATOR/></header><body><segment><metadata><OBJECT_NAME>ORBCOMM FM37</OBJECT_NAME><OBJECT_ID>2008-031E</OBJECT_ID><CENTER_NAME>EARTH</CENTER_NAME><REF_FRAME>TEME</REF_FRAME><TIME_SYSTEM>UTC</TIME_SYSTEM><MEAN_ELEMENT_THEORY>SGP4</MEAN_ELEMENT_THEORY></metadata><data><meanElements><EPOCH>2024-05-29T16:48:58.821120</EPOCH><MEAN_MOTION>14.76570406</MEAN_MOTION><ECCENTRICITY>.0006113</ECCENTRICITY><INCLINATION>48.4413</INCLINATION><RA_OF_ASC_NODE>2.3906</RA_OF_ASC_NODE><ARG_OF_PERICENTER>178.8078</ARG_OF_PERICENTER><MEAN_ANOMALY>295.6155</MEAN_ANOMALY></meanElements><tleParameters><EPHEMERIS_TYPE>0</EPHEMERIS_TYPE><CLASSIFICATION_TYPE>U</CLASSIFICATION_TYPE><NORAD_CAT_ID>33064</NORAD_CAT_ID><ELEMENT_SET_NO>999</ELEMENT_SET_NO><REV_AT_EPOCH>85731</REV_AT_EPOCH><BSTAR>.33145E-3</BSTAR><MEAN_MOTION_DOT>.2131E-4</MEAN_MOTION_DOT><MEAN_MOTION_DDOT>0</MEAN_MOTION_DDOT></tleParameters></data></segment></body></omm>
<omm id="CCSDS_OMM_VERS" version="2.0">
<header><CREATION_DATE/><ORIGINATOR/></header><body><segment><metadata><OBJECT_NAME>ORBCOMM FM40</OBJECT_NAME><OBJECT_ID>2008-031F</OBJECT_ID><CENTER_NAME>EARTH</CENTER_NAME><REF_FRAME>TEME</REF_FRAME><TIME_SYSTEM>UTC</TIME_SYSTEM><MEAN_ELEMENT_THEORY>SGP4</MEAN_ELEMENT_THEORY></metadata><data><meanElements><EPOCH>2024-05-29T22:56:45.998880</EPOCH><MEAN_MOTION>14.77921889</MEAN_MOTION><ECCENTRICITY>.0007573</ECCENTRICITY><INCLINATION>48.4435</INCLINATION><RA_OF_ASC_NODE>350.3668</RA_OF_ASC_NODE><ARG_OF_PERICENTER>188.2922</ARG_OF_PERICENTER><MEAN_ANOMALY>318.0712</MEAN_ANOMALY></meanElements><tleParameters><EPHEMERIS_TYPE>0</EPHEMERIS_TYPE><CLASSIFICATION_TYPE>U</CLASSIFICATION_TYPE><NORAD_CAT_ID>33065</NORAD_CAT_ID><ELEMENT_SET_NO>999</ELEMENT_SET_NO><REV_AT_EPOCH>85739</REV_AT_EPOCH><BSTAR>.39886E-3</BSTAR><MEAN_MOTION_DOT>.2696E-4</MEAN_MOTION_DOT><MEAN_MOTION_DDOT>0</MEAN_MOTION_DDOT></tleParameters></data></segment></body></omm>
<omm id="CCSDS_OMM_VERS" version="2.0">
<header><CREATION_DATE/><ORIGINATOR/></header><body><segment><metadata><OBJECT_NAME>VESSELSAT 1</OBJECT_NAME><OBJECT_ID>2011-058C</OBJECT_ID><CENTER_NAME>EARTH</CENTER_NAME><REF_FRAME>TEME</REF_FRAME><TIME_SYSTEM>UTC</TIME_SYSTEM><MEAN_ELEMENT_THEORY>SGP4</MEAN_ELEMENT_THEORY></metadata><data><meanElements><EPOCH>2024-05-30T12:18:00.344736</EPOCH><MEAN_MOTION>14.11161324</MEAN_MOTION><ECCENTRICITY>.001359</ECCENTRICITY><INCLINATION>19.9619</INCLINATION><RA_OF_ASC_NODE>249.1192</RA_OF_ASC_NODE><ARG_OF_PERICENTER>298.3329</ARG_OF_PERICENTER><MEAN_ANOMALY>61.5705</MEAN_ANOMALY></meanElements><tleParameters><EPHEMERIS_TYPE>0</EPHEMERIS_TYPE><CLASSIFICATION_TYPE>U</CLASSIFICATION_TYPE><NORAD_CAT_ID>37840</NORAD_CAT_ID><ELEMENT_SET_NO>999</ELEMENT_SET_NO><REV_AT_EPOCH>65241</REV_AT_EPOCH><BSTAR>.86514E-4</BSTAR><MEAN_MOTION_DOT>.423E-5</MEAN_MOTION_DOT><MEAN_MOTION_DDOT>0</MEAN_MOTION_DDOT></tleParameters></data></segment></body></omm>
<omm id="CCSDS_OMM_VERS" version="2.0">
<header><CREATION_DATE/><ORIGINATOR/></header><body><segment><metadata><OBJECT_NAME>ORBCOMM FM109</OBJECT_NAME><OBJECT_ID>2014-040A</OBJECT_ID><CENTER_NAME>EARTH</CENTER_NAME><REF_FRAME>TEME</REF_FRAME><TIME_SYSTEM>UTC</TIME_SYSTEM><MEAN_ELEMENT_THEORY>SGP4</MEAN_ELEMENT_THEORY></metadata><data><meanElements><EPOCH>2024-05-28T18:03:20.805696</EPOCH><MEAN_MOTION>14.56683939</MEAN_MOTION><ECCENTRICITY>.0002077</ECCENTRICITY><INCLINATION>47.0042</INCLINATION><RA_OF_ASC_NODE>29.9495</RA_OF_ASC_NODE><ARG_OF_PERICENTER>335.5334</ARG_OF_PERICENTER><MEAN_ANOMALY>24.5452</MEAN_ANOMALY></meanElements><tleParameters><EPHEMERIS_TYPE>0</EPHEMERIS_TYPE><CLASSIFICATION_TYPE>U</CLASSIFICATION_TYPE><NORAD_CAT_ID>40086</NORAD_CAT_ID><ELEMENT_SET_NO>999</ELEMENT_SET_NO><REV_AT_EPOCH>52498</REV_AT_EPOCH><BSTAR>.31609E-3</BSTAR><MEAN_MOTION_DOT>.1257E-4</MEAN_MOTION_DOT><MEAN_MOTION_DDOT>0</MEAN_MOTION_DDOT></tleParameters></data></segment></body></omm>
<omm id="CCSDS_OMM_VERS" version="2.0">
<header><CREATION_DATE/><ORIGINATOR/></header><body><segment><metadata><OBJECT_NAME>ORBCOMM FM107</OBJECT_NAME><OBJECT_ID>2014-040B</OBJECT_ID><CENTER_NAME>EARTH</CENTER_NAME><REF_FRAME>TEME</REF_FRAME><TIME_SYSTEM>UTC</TIME_SYSTEM><MEAN_ELEMENT_THEORY>SGP4</MEAN_ELEMENT_THEORY></metadata><data><meanElements><EPOCH>2024-05-29T17:55:13.095840</EPOCH><MEAN_MOTION>14.56698288</MEAN_MOTION><ECCENTRICITY>.00018</ECCENTRICITY><INCLINATION>47.0068</INCLINATION><RA_OF_ASC_NODE>26.2321</RA_OF_ASC_NODE><ARG_OF_PERICENTER>307.7323</ARG_OF_PERICENTER><MEAN_ANOMALY>52.3398</MEAN_ANOMALY></meanElements><tleParameters><EPHEMERIS_TYPE>0</EPHEMERIS_TYPE><CLASSIFICATION_TYPE>U</CLASSIFICATION_TYPE><NORAD_CAT_ID>40087</NORAD_CAT_ID><ELEMENT_SET_NO>999</ELEMENT_SET_NO><REV_AT_EPOCH>52520</REV_AT_EPOCH><BSTAR>.34411E-3</BSTAR><MEAN_MOTION_DOT>.1384E-4</MEAN_MOTION_DOT><MEAN_MOTION_DDOT>0</MEAN_MOTION_DDOT></tleParameters></data></segment></body></omm>
<omm id="CCSDS_OMM_VERS" version="2.0">
<header><CREATION_DATE/><ORIGINATOR/></header><body><segment><metadata><OBJECT_NAME>ORBCOMM FM106</OBJECT_NAME><OBJECT_ID>2014-040C</OBJECT_ID><CENTER_NAME>EARTH</CENTER_NAME><REF_FRAME>TEME</REF_FRAME><TIME_SYSTEM>UTC</TIME_SYSTEM><MEAN_ELEMENT_THEORY>SGP4</MEAN_ELEMENT_THEORY></metadata><data><meanElements><EPOCH>2024-05-30T08:25:11.211744</EPOCH><MEAN_MOTION>14.67133923</MEAN_MOTION><ECCENTRICITY>.0016719</ECCENTRICITY><INCLINATION>47.0595</INCLINATION><RA_OF_ASC_NODE>235.0498</RA_OF_ASC_NODE><ARG_OF_PERICENTER>89.3928</ARG_OF_PERICENTER><MEAN_ANOMALY>270.8877</MEAN_ANOMALY></meanElements><tleParameters><EPHEMERIS_TYPE>0</EPHEMERIS_TYPE><CLASSIFICATION_TYPE>U</CLASSIFICATION_TYPE><NORAD_CAT_ID>40088</NORAD_CAT_ID><ELEMENT_SET_NO>999</ELEMENT_SET_NO><REV_AT_EPOCH>52742</REV_AT_EPOCH><BSTAR>.25961E-3</BSTAR><MEAN_MOTION_DOT>.1291E-4</MEAN_MOTION_DOT><MEAN_MOTION_DDOT>0</MEAN_MOTION_DDOT></tleParameters></data></segment></body></omm>
<omm id="CCSDS_OMM_VERS" version="2.0">
<header><CREATION_DATE/><ORIGINATOR/></header><body><segment><metadata><OBJECT_NAME>ORBCOMM FM111</OBJECT_NAME><OBJECT_ID>2014-040D</OBJECT_ID><CENTER_NAME>EARTH</CENTER_NAME><REF_FRAME>TEME</REF_FRAME><TIME_SYSTEM>UTC</TIME_SYSTEM><MEAN_ELEMENT_THEORY>SGP4</MEAN_ELEMENT_THEORY></metadata><data><meanElements><EPOCH>2024-05-29T08:57:15.192864</EPOCH><MEAN_MOTION>14.81925763</MEAN_MOTION><ECCENTRICITY>.0032135</ECCENTRICITY><INCLINATION>47.0026</INCLINATION><RA_OF_ASC_NODE>138.5042</RA_OF_ASC_NODE><ARG_OF_PERICENTER>160.3368</ARG_OF_PERICENTER><MEAN_ANOMALY>199.8774</MEAN_ANOMALY></meanElements><tleParameters><EPHEMERIS_TYPE>0</EPHEMERIS_TYPE><CLASSIFICATION_TYPE>U</CLASSIFICATION_TYPE><NORAD_CAT_ID>40089</NORAD_CAT_ID><ELEMENT_SET_NO>999</ELEMENT_SET_NO><REV_AT_EPOCH>53321</REV_AT_EPOCH><BSTAR>.2844E-3</BSTAR><MEAN_MOTION_DOT>.2084E-4</MEAN_MOTION_DOT><MEAN_MOTION_DDOT>0</MEAN_MOTION_DDOT></tleParameters></data></segment></body></omm>
<omm id="CCSDS_OMM_VERS" version="2.0">
<header><CREATION_DATE/><ORIGINATOR/></header><body><segment><metadata><OBJECT_NAME>ORBCOMM FM104</OBJECT_NAME><OBJECT_ID>2014-040E</OBJECT_ID><CENTER_NAME>EARTH</CENTER_NAME><REF_FRAME>TEME</REF_FRAME><TIME_SYSTEM>UTC</TIME_SYSTEM><MEAN_ELEMENT_THEORY>SGP4</MEAN_ELEMENT_THEORY></metadata><data><meanElements><EPOCH>2024-05-29T20:59:30.312960</EPOCH><MEAN_MOTION>14.55190935</MEAN_MOTION><ECCENTRICITY>.0017469</ECCENTRICITY><INCLINATION>47.0064</INCLINATION><RA_OF_ASC_NODE>54.7570</RA_OF_ASC_NODE><ARG_OF_PERICENTER>255.2518</ARG_OF_PERICENTER><MEAN_ANOMALY>104.6431</MEAN_ANOMALY></meanElements><tleParameters><EPHEMERIS_TYPE>0</EPHEMERIS_TYPE><CLASSIFICATION_TYPE>U</CLASSIFICATION_TYPE><NORAD_CAT_ID>40090</NORAD_CAT_ID><ELEMENT_SET_NO>999</ELEMENT_SET_NO><REV_AT_EPOCH>52476</REV_AT_EPOCH><BSTAR>.24144E-3</BSTAR><MEAN_MOTION_DOT>.887E-5</MEAN_MOTION_DOT><MEAN_MOTION_DDOT>0</MEAN_MOTION_DDOT></tleParameters></data></segment></body></omm>

</ndm>
