ORBCOMM FM37            
1 33064U 08031E   24150.70068080  .00002131  00000+0  33145-3 0  9994
2 33064  48.4413   2.3906 0006113 178.8078 295.6155 14.76570406857319
ORBCOMM FM40            
1 33065U 08031F   24150.95608795  .00002696  00000+0  39886-3 0  9999
2 33065  48.4435 350.3668 0007573 188.2922 318.0712 14.77921889857392
VESSELSAT 1             
1 37840U 11058C   24151.51250399  .00000423  00000+0  86514-4 0  9990
2 37840  19.9619 249.1192 0013590 298.3329  61.5705 14.11161324652417
ORBCOMM FM109           
1 40086U 14040A   24149.75232414  .00001257  00000+0  31609-3 0  9991
2 40086  47.0042  29.9495 0002077 335.5334  24.5452 14.56683939524981
ORBCOMM FM107           
1 40087U 14040B   24150.74667935  .00001384  00000+0  34411-3 0  9998
2 40087  47.0068  26.2321 0001800 307.7323  52.3398 14.56698288525207
ORBCOMM FM106           
1 40088U 14040C   24151.35082421  .00001291  00000+0  25961-3 0  9995
2 40088  47.0595 235.0498 0016719  89.3928 270.8877 14.67133923527424
ORBCOMM FM111           
1 40089U 14040D   24150.37309251  .00002084  00000+0  28440-3 0  9996
2 40089  47.0026 138.5042 0032135 160.3368 199.8774 14.81925763533211
ORBCOMM FM104           
1 40090U 14040E   24150.87465640  .00000887  00000+0  24144-3 0  9994
2 40090  47.0064  54.7570 0017469 255.2518 104.6431 14.55190935524764
